{
  "type": "FeatureCollection",
  "features": [
    {
      "type": "Feature",
      "properties": {
        "norad_id": 66747,
        "name": "W-SERIES 5",
        "group": "last-30-days",
        "lat": 26.777340396130825,
        "lon": 69.37176224794158,
        "alt_km": 513.2568228847749,
        "timestamp": "2025-12-27T15:27:09.830149+00:00",
        "meta_object_name": "W-SERIES 5",
        "meta_object_id": "2025-276CK",
        "meta_epoch": "2025-12-27T05:50:21.047424",
        "meta_mean_motion": 15.17581839,
        "meta_eccentricity": 0.0001667,
        "meta_inclination": 97.4405,
        "meta_ra_of_asc_node": 72.7596,
        "meta_arg_of_pericenter": 185.6769,
        "meta_mean_anomaly": 174.4446,
        "meta_ephemeris_type": 0,
        "meta_classification_type": "U",
        "meta_norad_cat_id": 66747,
        "meta_element_set_no": 999,
        "meta_rev_at_epoch": 432,
        "meta_bstar": 0.00047350048,
        "meta_mean_motion_dot": 9.451e-05,
        "meta_mean_motion_ddot": 0,
        "tle_line1": "1 66747U 25276CK  25361.24329916  .00009451  00000+0  47350-3 0  9995",
        "tle_line2": "2 66747  97.4405  72.7596 0001667 185.6769 174.4446 15.17581839  4326"
      },
      "geometry": {
        "type": "Point",
        "coordinates": [
          69.37176224794158,
          26.777340396130825
        ]
      }
    },
    {
      "type": "Feature",
      "properties": {
        "norad_id": 66748,
        "name": "TRANSPORTER-15CL",
        "group": "last-30-days",
        "lat": 82.17470534240688,
        "lon": -34.86406853064761,
        "alt_km": 502.84327292023863,
        "timestamp": "2025-12-27T15:27:09.830161+00:00",
        "meta_object_name": "TRANSPORTER-15CL",
        "meta_object_id": "2025-276CL",
        "meta_epoch": "2025-12-27T05:33:33.639840",
        "meta_mean_motion": 15.1868886,
        "meta_eccentricity": 0.00022043,
        "meta_inclination": 97.4398,
        "meta_ra_of_asc_node": 72.7728,
        "meta_arg_of_pericenter": 205.1504,
        "meta_mean_anomaly": 154.9623,
        "meta_ephemeris_type": 0,
        "meta_classification_type": "U",
        "meta_norad_cat_id": 66748,
        "meta_element_set_no": 999,
        "meta_rev_at_epoch": 432,
        "meta_bstar": 0.0010947457,
        "meta_mean_motion_dot": 0.00022689,
        "meta_mean_motion_ddot": 0,
        "tle_line1": "1 66748U 25276CL  25361.23163935  .00022689  00000+0  10947-2 0  9991",
        "tle_line2": "2 66748  97.4398  72.7728 0002204 205.1504 154.9623 15.18688860  4321"
      },
      "geometry": {
        "type": "Point",
        "coordinates": [
          -34.86406853064761,
          82.17470534240688
        ]
      }
    },
    {
      "type": "Feature",
      "properties": {
        "norad_id": 66749,
        "name": "TRANSPORTER-15CM",
        "group": "last-30-days",
        "lat": 55.08703798377892,
        "lon": 62.369651157426944,
        "alt_km": 507.5713451567517,
        "timestamp": "2025-12-27T15:27:09.830172+00:00",
        "meta_object_name": "TRANSPORTER-15CM",
        "meta_object_id": "2025-276CM",
        "meta_epoch": "2025-12-27T05:42:54.567648",
        "meta_mean_motion": 15.17940293,
        "meta_eccentricity": 0.0002305,
        "meta_inclination": 97.4392,
        "meta_ra_of_asc_node": 72.761,
        "meta_arg_of_pericenter": 174.3969,
        "meta_mean_anomaly": 185.7291,
        "meta_ephemeris_type": 0,
        "meta_classification_type": "U",
        "meta_norad_cat_id": 66749,
        "meta_element_set_no": 999,
        "meta_rev_at_epoch": 432,
        "meta_bstar": 0.00054504157,
        "meta_mean_motion_dot": 0.00011005,
        "meta_mean_motion_ddot": 0,
        "tle_line1": "1 66749U 25276CM  25361.23813157  .00011005  00000+0  54504-3 0  9998",
        "tle_line2": "2 66749  97.4392  72.7610 0002305 174.3969 185.7291 15.17940293  4323"
      },
      "geometry": {
        "type": "Point",
        "coordinates": [
          62.369651157426944,
          55.08703798377892
        ]
      }
    },
    {
      "type": "Feature",
      "properties": {
        "norad_id": 66750,
        "name": "TRANSPORTER-15CN",
        "group": "last-30-days",
        "lat": 74.12221148455872,
        "lon": 45.833154018346136,
        "alt_km": 502.89578176800205,
        "timestamp": "2025-12-27T15:27:09.830183+00:00",
        "meta_object_name": "TRANSPORTER-15CN",
        "meta_object_id": "2025-276CN",
        "meta_epoch": "2025-12-27T04:02:50.971200",
        "meta_mean_motion": 15.18273356,
        "meta_eccentricity": 0.00055469,
        "meta_inclination": 97.4397,
        "meta_ra_of_asc_node": 72.7146,
        "meta_arg_of_pericenter": 155.6352,
        "meta_mean_anomaly": 204.5146,
        "meta_ephemeris_type": 0,
        "meta_classification_type": "U",
        "meta_norad_cat_id": 66750,
        "meta_element_set_no": 999,
        "meta_rev_at_epoch": 431,
        "meta_bstar": 0.0054382701,
        "meta_mean_motion_dot": 0.00113053,
        "meta_mean_motion_ddot": 0,
        "tle_line1": "1 66750U 25276CN  25361.16864550  .00113053  00000+0  54383-2 0  9995",
        "tle_line2": "2 66750  97.4397  72.7146 0005546 155.6352 204.5146 15.18273356  4310"
      },
      "geometry": {
        "type": "Point",
        "coordinates": [
          45.833154018346136,
          74.12221148455872
        ]
      }
    },
    {
      "type": "Feature",
      "properties": {
        "norad_id": 66751,
        "name": "ICEYE-X58",
        "group": "last-30-days",
        "lat": 51.8709323308165,
        "lon": 63.58299985219383,
        "alt_km": 508.87693853550627,
        "timestamp": "2025-12-27T15:27:09.830193+00:00",
        "meta_object_name": "ICEYE-X58",
        "meta_object_id": "2025-276CP",
        "meta_epoch": "2025-12-27T05:43:44.364288",
        "meta_mean_motion": 15.17847677,
        "meta_eccentricity": 0.00027431,
        "meta_inclination": 97.4405,
        "meta_ra_of_asc_node": 72.769,
        "meta_arg_of_pericenter": 188.4446,
        "meta_mean_anomaly": 171.6742,
        "meta_ephemeris_type": 0,
        "meta_classification_type": "U",
        "meta_norad_cat_id": 66751,
        "meta_element_set_no": 999,
        "meta_rev_at_epoch": 432,
        "meta_bstar": 0.00045599553,
        "meta_mean_motion_dot": 9.169e-05,
        "meta_mean_motion_ddot": 0,
        "tle_line1": "1 66751U 25276CP  25361.23870792  .00009169  00000+0  45600-3 0  9994",
        "tle_line2": "2 66751  97.4405  72.7690 0002743 188.4446 171.6742 15.17847677  4328"
      },
      "geometry": {
        "type": "Point",
        "coordinates": [
          63.58299985219383,
          51.8709323308165
        ]
      }
    },
    {
      "type": "Feature",
      "properties": {
        "norad_id": 66752,
        "name": "ICEYE-X59",
        "group": "last-30-days",
        "lat": 32.16269283270186,
        "lon": 68.44493391094996,
        "alt_km": 512.6093822600687,
        "timestamp": "2025-12-27T15:27:09.830202+00:00",
        "meta_object_name": "ICEYE-X59",
        "meta_object_id": "2025-276CQ",
        "meta_epoch": "2025-12-27T05:48:56.381472",
        "meta_mean_motion": 15.17647005,
        "meta_eccentricity": 0.00021421,
        "meta_inclination": 97.4398,
        "meta_ra_of_asc_node": 72.7638,
        "meta_arg_of_pericenter": 213.544,
        "meta_mean_anomaly": 146.5658,
        "meta_ephemeris_type": 0,
        "meta_classification_type": "U",
        "meta_norad_cat_id": 66752,
        "meta_element_set_no": 999,
        "meta_rev_at_epoch": 432,
        "meta_bstar": 0.00045165052,
        "meta_mean_motion_dot": 9.029e-05,
        "meta_mean_motion_ddot": 0,
        "tle_line1": "1 66752U 25276CQ  25361.24231923  .00009029  00000+0  45165-3 0  9994",
        "tle_line2": "2 66752  97.4398  72.7638 0002142 213.5440 146.5658 15.17647005  4329"
      },
      "geometry": {
        "type": "Point",
        "coordinates": [
          68.44493391094996,
          32.16269283270186
        ]
      }
    },
    {
      "type": "Feature",
      "properties": {
        "norad_id": 66753,
        "name": "ICEYE-X60",
        "group": "last-30-days",
        "lat": 8.099280458309483,
        "lon": 72.07862145325163,
        "alt_km": 516.0711774651954,
        "timestamp": "2025-12-27T15:27:09.830215+00:00",
        "meta_object_name": "ICEYE-X60",
        "meta_object_id": "2025-276CR",
        "meta_epoch": "2025-12-27T05:55:15.815712",
        "meta_mean_motion": 15.17427831,
        "meta_eccentricity": 0.00011863,
        "meta_inclination": 97.44,
        "meta_ra_of_asc_node": 72.7541,
        "meta_arg_of_pericenter": 241.3775,
        "meta_mean_anomaly": 118.734,
        "meta_ephemeris_type": 0,
        "meta_classification_type": "U",
        "meta_norad_cat_id": 66753,
        "meta_element_set_no": 999,
        "meta_rev_at_epoch": 432,
        "meta_bstar": 0.00045693296,
        "meta_mean_motion_dot": 9.078e-05,
        "meta_mean_motion_ddot": 0,
        "tle_line1": "1 66753U 25276CR  25361.24671083  .00009078  00000+0  45693-3 0  9990",
        "tle_line2": "2 66753  97.4400  72.7541 0001186 241.3775 118.7340 15.17427831  4326"
      },
      "geometry": {
        "type": "Point",
        "coordinates": [
          72.07862145325163,
          8.099280458309483
        ]
      }
    }
  ]
}